STARLINK-1780
1 16684C 20073Q   21326.13855572  .00006004  00000-0  40226-3 0  3261
2 16684  53.0528  83.1224 0001229  81.2975 335.2675 15.06392750    19
